{
  "type": "FeatureCollection",
  "features": [
    {
      "type": "Feature",
      "properties": {
        "norad_id": 66523,
        "name": "STARLINK-35969",
        "group": "last-30-days",
        "lat": -26.337582823655634,
        "lon": -133.17783561386642,
        "alt_km": 416.36974349311186,
        "timestamp": "2025-12-19T10:49:59.921184+00:00",
        "meta_object_name": "STARLINK-35969",
        "meta_object_id": "2025-265H",
        "meta_epoch": "2025-12-18T09:09:12.138336",
        "meta_mean_motion": 15.50611423,
        "meta_eccentricity": 0.00033344,
        "meta_inclination": 43.0034,
        "meta_ra_of_asc_node": 20.9974,
        "meta_arg_of_pericenter": 293.546,
        "meta_mean_anomaly": 66.505,
        "meta_ephemeris_type": 0,
        "meta_classification_type": "U",
        "meta_norad_cat_id": 66523,
        "meta_element_set_no": 999,
        "meta_rev_at_epoch": 463,
        "meta_bstar": 0.0017102278,
        "meta_mean_motion_dot": 0.00101428,
        "meta_mean_motion_ddot": 0,
        "tle_line1": "1 66523U 25265H   25352.38139049  .00101428  00000+0  17102-2 0  9994",
        "tle_line2": "2 66523  43.0034  20.9974 0003334 293.5460  66.5050 15.50611423  4634"
      },
      "geometry": {
        "type": "Point",
        "coordinates": [
          -133.17783561386642,
          -26.337582823655634
        ]
      }
    },
    {
      "type": "Feature",
      "properties": {
        "norad_id": 66524,
        "name": "STARLINK-35687",
        "group": "last-30-days",
        "lat": -29.71467864335114,
        "lon": -22.37853625635676,
        "alt_km": 445.70563186462914,
        "timestamp": "2025-12-19T10:49:59.921198+00:00",
        "meta_object_name": "STARLINK-35687",
        "meta_object_id": "2025-265J",
        "meta_epoch": "2025-12-18T10:08:29.779296",
        "meta_mean_motion": 15.40707286,
        "meta_eccentricity": 0.00013869,
        "meta_inclination": 43.0026,
        "meta_ra_of_asc_node": 21.3158,
        "meta_arg_of_pericenter": 269.7138,
        "meta_mean_anomaly": 90.356,
        "meta_ephemeris_type": 0,
        "meta_classification_type": "U",
        "meta_norad_cat_id": 66524,
        "meta_element_set_no": 999,
        "meta_rev_at_epoch": 463,
        "meta_bstar": 0.00099694918,
        "meta_mean_motion_dot": 0.00041578,
        "meta_mean_motion_ddot": 0,
        "tle_line1": "1 66524U 25265J   25352.42256689  .00041578  00000+0  99695-3 0  9997",
        "tle_line2": "2 66524  43.0026  21.3158 0001386 269.7138  90.3560 15.40707286  4630"
      },
      "geometry": {
        "type": "Point",
        "coordinates": [
          -22.37853625635676,
          -29.71467864335114
        ]
      }
    },
    {
      "type": "Feature",
      "properties": {
        "norad_id": 66525,
        "name": "STARLINK-35975",
        "group": "last-30-days",
        "lat": 2.090138037119223,
        "lon": 17.51031533751754,
        "alt_km": 442.99343348515595,
        "timestamp": "2025-12-19T10:49:59.921210+00:00",
        "meta_object_name": "STARLINK-35975",
        "meta_object_id": "2025-265K",
        "meta_epoch": "2025-12-18T11:28:57.111456",
        "meta_mean_motion": 15.40721976,
        "meta_eccentricity": 0.00018949,
        "meta_inclination": 43.0015,
        "meta_ra_of_asc_node": 20.8742,
        "meta_arg_of_pericenter": 281.2263,
        "meta_mean_anomaly": 78.8381,
        "meta_ephemeris_type": 0,
        "meta_classification_type": "U",
        "meta_norad_cat_id": 66525,
        "meta_element_set_no": 999,
        "meta_rev_at_epoch": 464,
        "meta_bstar": 0.0006630148,
        "meta_mean_motion_dot": 0.00027513,
        "meta_mean_motion_ddot": 0,
        "tle_line1": "1 66525U 25265K   25352.47843879  .00027513  00000+0  66301-3 0  9997",
        "tle_line2": "2 66525  43.0015  20.8742 0001894 281.2263  78.8381 15.40721976  4649"
      },
      "geometry": {
        "type": "Point",
        "coordinates": [
          17.51031533751754,
          2.090138037119223
        ]
      }
    },
    {
      "type": "Feature",
      "properties": {
        "norad_id": 66526,
        "name": "STARLINK-35932",
        "group": "last-30-days",
        "lat": 42.98022866438144,
        "lon": 105.06558126173633,
        "alt_km": 438.2350493478252,
        "timestamp": "2025-12-19T10:49:59.921224+00:00",
        "meta_object_name": "STARLINK-35932",
        "meta_object_id": "2025-265L",
        "meta_epoch": "2025-12-19T00:00:02.000160",
        "meta_mean_motion": 15.40660356,
        "meta_eccentricity": 0.00015315,
        "meta_inclination": 43.0005,
        "meta_ra_of_asc_node": 17.6535,
        "meta_arg_of_pericenter": 262.0196,
        "meta_mean_anomaly": 201.5397,
        "meta_ephemeris_type": 0,
        "meta_classification_type": "U",
        "meta_norad_cat_id": 66526,
        "meta_element_set_no": 999,
        "meta_rev_at_epoch": 589,
        "meta_bstar": 0.0012312974,
        "meta_mean_motion_dot": 0.0005141,
        "meta_mean_motion_ddot": 0,
        "tle_line1": "1 66526U 25265L   25353.00002315  .00051410  00000+0  12313-2 0  9996",
        "tle_line2": "2 66526  43.0005  17.6535 0001531 262.0196 201.5397 15.40660356  5897"
      },
      "geometry": {
        "type": "Point",
        "coordinates": [
          105.06558126173633,
          42.98022866438144
        ]
      }
    },
    {
      "type": "Feature",
      "properties": {
        "norad_id": 66527,
        "name": "STARLINK-35935",
        "group": "last-30-days",
        "lat": 1.9608283393781458,
        "lon": -167.26375616076407,
        "alt_km": 443.4329990425531,
        "timestamp": "2025-12-19T10:49:59.921235+00:00",
        "meta_object_name": "STARLINK-35935",
        "meta_object_id": "2025-265M",
        "meta_epoch": "2025-12-19T00:00:02.000160",
        "meta_mean_motion": 15.40622626,
        "meta_eccentricity": 0.00015104,
        "meta_inclination": 43.0001,
        "meta_ra_of_asc_node": 17.4432,
        "meta_arg_of_pericenter": 252.7862,
        "meta_mean_anomaly": 297.8739,
        "meta_ephemeris_type": 0,
        "meta_classification_type": "U",
        "meta_norad_cat_id": 66527,
        "meta_element_set_no": 999,
        "meta_rev_at_epoch": 600,
        "meta_bstar": 0.0013610845,
        "meta_mean_motion_dot": 0.0005683,
        "meta_mean_motion_ddot": 0,
        "tle_line1": "1 66527U 25265M   25353.00002315  .00056830  00000+0  13611-2 0  9990",
        "tle_line2": "2 66527  43.0001  17.4432 0001510 252.7862 297.8739 15.40622626  6001"
      },
      "geometry": {
        "type": "Point",
        "coordinates": [
          -167.26375616076407,
          1.9608283393781458
        ]
      }
    },
    {
      "type": "Feature",
      "properties": {
        "norad_id": 66528,
        "name": "STARLINK-35928",
        "group": "last-30-days",
        "lat": -31.459800259440357,
        "lon": -124.24731454862794,
        "alt_km": 416.6430340700408,
        "timestamp": "2025-12-19T10:49:59.921245+00:00",
        "meta_object_name": "STARLINK-35928",
        "meta_object_id": "2025-265N",
        "meta_epoch": "2025-12-18T10:39:29.722464",
        "meta_mean_motion": 15.50593981,
        "meta_eccentricity": 0.00016336,
        "meta_inclination": 42.9983,
        "meta_ra_of_asc_node": 20.6041,
        "meta_arg_of_pericenter": 271.028,
        "meta_mean_anomaly": 89.0393,
        "meta_ephemeris_type": 0,
        "meta_classification_type": "U",
        "meta_norad_cat_id": 66528,
        "meta_element_set_no": 999,
        "meta_rev_at_epoch": 464,
        "meta_bstar": 0.0011684581,
        "meta_mean_motion_dot": 0.00068849,
        "meta_mean_motion_ddot": 0,
        "tle_line1": "1 66528U 25265N   25352.44409401  .00068849  00000+0  11685-2 0  9997",
        "tle_line2": "2 66528  42.9983  20.6041 0001633 271.0280  89.0393 15.50593981  4642"
      },
      "geometry": {
        "type": "Point",
        "coordinates": [
          -124.24731454862794,
          -31.459800259440357
        ]
      }
    },
    {
      "type": "Feature",
      "properties": {
        "norad_id": 66529,
        "name": "STARLINK-35933",
        "group": "last-30-days",
        "lat": -22.440967160183224,
        "lon": -10.955828483318534,
        "alt_km": 445.4369990747364,
        "timestamp": "2025-12-19T10:49:59.921256+00:00",
        "meta_object_name": "STARLINK-35933",
        "meta_object_id": "2025-265P",
        "meta_epoch": "2025-12-18T11:38:38.604192",
        "meta_mean_motion": 15.40762374,
        "meta_eccentricity": 0.00012434,
        "meta_inclination": 43.0014,
        "meta_ra_of_asc_node": 20.9218,
        "meta_arg_of_pericenter": 246.0949,
        "meta_mean_anomaly": 113.9777,
        "meta_ephemeris_type": 0,
        "meta_classification_type": "U",
        "meta_norad_cat_id": 66529,
        "meta_element_set_no": 999,
        "meta_rev_at_epoch": 464,
        "meta_bstar": 0.0014099332,
        "meta_mean_motion_dot": 0.00059173,
        "meta_mean_motion_ddot": 0,
        "tle_line1": "1 66529U 25265P   25352.48516903  .00059173  00000+0  14099-2 0  9990",
        "tle_line2": "2 66529  43.0014  20.9218 0001243 246.0949 113.9777 15.40762374  4646"
      },
      "geometry": {
        "type": "Point",
        "coordinates": [
          -10.955828483318534,
          -22.440967160183224
        ]
      }
    }
  ]
}